{
  "type": "FeatureCollection",
  "features": [
    {
      "type": "Feature",
      "properties": {
        "norad_id": 39160,
        "name": "VNREDSAT 1",
        "group": "resource",
        "lat": -73.58046814538994,
        "lon": 71.79193487001264,
        "alt_km": 685.4333562361007,
        "timestamp": "2025-12-14T07:33:19.134890+00:00",
        "meta_object_name": "VNREDSAT 1",
        "meta_object_id": "2013-021B",
        "meta_epoch": "2025-12-13T15:30:25.246656",
        "meta_mean_motion": 14.64926021,
        "meta_eccentricity": 0.00013014,
        "meta_inclination": 97.9372,
        "meta_ra_of_asc_node": 42.889,
        "meta_arg_of_pericenter": 78.9986,
        "meta_mean_anomaly": 281.1364,
        "meta_ephemeris_type": 0,
        "meta_classification_type": "U",
        "meta_norad_cat_id": 39160,
        "meta_element_set_no": 999,
        "meta_rev_at_epoch": 67312,
        "meta_bstar": 0.00024898623,
        "meta_mean_motion_dot": 1.286e-05,
        "meta_mean_motion_ddot": 0,
        "tle_line1": "1 39160U 13021B   25347.64612554  .00001286  00000+0  24899-3 0  9991",
        "tle_line2": "2 39160  97.9372  42.8890 0001301  78.9986 281.1364 14.64926021673120"
      },
      "geometry": {
        "type": "Point",
        "coordinates": [
          71.79193487001264,
          -73.58046814538994
        ]
      }
    },
    {
      "type": "Feature",
      "properties": {
        "norad_id": 39227,
        "name": "ARIRANG-5 (KOMPSAT-5)",
        "group": "resource",
        "lat": -46.48630680098124,
        "lon": -15.504381293389367,
        "alt_km": 562.263651715487,
        "timestamp": "2025-12-14T07:33:19.134900+00:00",
        "meta_object_name": "ARIRANG-5 (KOMPSAT-5)",
        "meta_object_id": "2013-042A",
        "meta_epoch": "2025-12-13T16:11:02.392800",
        "meta_mean_motion": 15.04511749,
        "meta_eccentricity": 0.00035406,
        "meta_inclination": 97.6144,
        "meta_ra_of_asc_node": 171.9647,
        "meta_arg_of_pericenter": 52.969,
        "meta_mean_anomaly": 307.186,
        "meta_ephemeris_type": 0,
        "meta_classification_type": "U",
        "meta_norad_cat_id": 39227,
        "meta_element_set_no": 999,
        "meta_rev_at_epoch": 67596,
        "meta_bstar": 0.00023191246,
        "meta_mean_motion_dot": 3.187e-05,
        "meta_mean_motion_ddot": 0,
        "tle_line1": "1 39227U 13042A   25347.67433325  .00003187  00000+0  23191-3 0  9994",
        "tle_line2": "2 39227  97.6144 171.9647 0003540  52.9690 307.1860 15.04511749675969"
      },
      "geometry": {
        "type": "Point",
        "coordinates": [
          -15.504381293389367,
          -46.48630680098124
        ]
      }
    },
    {
      "type": "Feature",
      "properties": {
        "norad_id": 39418,
        "name": "SKYSAT-A",
        "group": "resource",
        "lat": -77.28633305278548,
        "lon": 73.71189167276276,
        "alt_km": 529.3224573656653,
        "timestamp": "2025-12-14T07:33:19.134911+00:00",
        "meta_object_name": "SKYSAT-A",
        "meta_object_id": "2013-066C",
        "meta_epoch": "2025-12-13T16:01:12.297216",
        "meta_mean_motion": 15.1161467,
        "meta_eccentricity": 0.002069,
        "meta_inclination": 97.4112,
        "meta_ra_of_asc_node": 37.8478,
        "meta_arg_of_pericenter": 233.0272,
        "meta_mean_anomaly": 126.9065,
        "meta_ephemeris_type": 0,
        "meta_classification_type": "U",
        "meta_norad_cat_id": 39418,
        "meta_element_set_no": 999,
        "meta_rev_at_epoch": 66044,
        "meta_bstar": 0.00026652257,
        "meta_mean_motion_dot": 4.486e-05,
        "meta_mean_motion_ddot": 0,
        "tle_line1": "1 39418U 13066C   25347.66750344  .00004486  00000+0  26652-3 0  9992",
        "tle_line2": "2 39418  97.4112  37.8478 0020690 233.0272 126.9065 15.11614670660445"
      },
      "geometry": {
        "type": "Point",
        "coordinates": [
          73.71189167276276,
          -77.28633305278548
        ]
      }
    },
    {
      "type": "Feature",
      "properties": {
        "norad_id": 39419,
        "name": "DUBAISAT-2",
        "group": "resource",
        "lat": 43.49205563945237,
        "lon": -28.453572398283583,
        "alt_km": 537.2556256524058,
        "timestamp": "2025-12-14T07:33:19.134922+00:00",
        "meta_object_name": "DUBAISAT-2",
        "meta_object_id": "2013-066D",
        "meta_epoch": "2025-12-13T15:26:24.365184",
        "meta_mean_motion": 15.08374548,
        "meta_eccentricity": 0.00104958,
        "meta_inclination": 97.4456,
        "meta_ra_of_asc_node": 338.0225,
        "meta_arg_of_pericenter": 318.6543,
        "meta_mean_anomaly": 41.389,
        "meta_ephemeris_type": 0,
        "meta_classification_type": "U",
        "meta_norad_cat_id": 39419,
        "meta_element_set_no": 999,
        "meta_rev_at_epoch": 65840,
        "meta_bstar": 0.00047709684,
        "meta_mean_motion_dot": 7.365e-05,
        "meta_mean_motion_ddot": 0,
        "tle_line1": "1 39419U 13066D   25347.64333756  .00007365  00000+0  47710-3 0  9992",
        "tle_line2": "2 39419  97.4456 338.0225 0010495 318.6543  41.3890 15.08374548658408"
      },
      "geometry": {
        "type": "Point",
        "coordinates": [
          -28.453572398283583,
          43.49205563945237
        ]
      }
    },
    {
      "type": "Feature",
      "properties": {
        "norad_id": 39574,
        "name": "GPM-CORE",
        "group": "resource",
        "lat": 26.18633405081895,
        "lon": -139.31000912758395,
        "alt_km": 436.3905668400721,
        "timestamp": "2025-12-14T07:33:19.134933+00:00",
        "meta_object_name": "GPM-CORE",
        "meta_object_id": "2014-009C",
        "meta_epoch": "2025-12-13T15:53:20.869440",
        "meta_mean_motion": 15.44484417,
        "meta_eccentricity": 0.00097938,
        "meta_inclination": 64.9734,
        "meta_ra_of_asc_node": 209.592,
        "meta_arg_of_pericenter": 245.543,
        "meta_mean_anomaly": 114.469,
        "meta_ephemeris_type": 0,
        "meta_classification_type": "U",
        "meta_norad_cat_id": 39574,
        "meta_element_set_no": 999,
        "meta_rev_at_epoch": 66915,
        "meta_bstar": 0.00021260046,
        "meta_mean_motion_dot": 9.679e-05,
        "meta_mean_motion_ddot": 0,
        "tle_line1": "1 39574U 14009C   25347.66204710  .00009679  00000+0  21260-3 0  9993",
        "tle_line2": "2 39574  64.9734 209.5920 0009793 245.5430 114.4690 15.44484417669155"
      },
      "geometry": {
        "type": "Point",
        "coordinates": [
          -139.31000912758395,
          26.18633405081895
        ]
      }
    },
    {
      "type": "Feature",
      "properties": {
        "norad_id": 39634,
        "name": "SENTINEL-1A",
        "group": "resource",
        "lat": 65.55725097771895,
        "lon": -168.01571334243675,
        "alt_km": 688.5986031050616,
        "timestamp": "2025-12-14T07:33:19.134944+00:00",
        "meta_object_name": "SENTINEL-1A",
        "meta_object_id": "2014-016A",
        "meta_epoch": "2025-12-13T16:13:39.620928",
        "meta_mean_motion": 14.59200755,
        "meta_eccentricity": 0.00012496,
        "meta_inclination": 98.1808,
        "meta_ra_of_asc_node": 352.9037,
        "meta_arg_of_pericenter": 83.635,
        "meta_mean_anomaly": 276.4992,
        "meta_ephemeris_type": 0,
        "meta_classification_type": "U",
        "meta_norad_cat_id": 39634,
        "meta_element_set_no": 999,
        "meta_rev_at_epoch": 62296,
        "meta_bstar": 4.8174499e-05,
        "meta_mean_motion_dot": 1.81e-06,
        "meta_mean_motion_ddot": 0,
        "tle_line1": "1 39634U 14016A   25347.67615302  .00000181  00000+0  48174-4 0  9995",
        "tle_line2": "2 39634  98.1808 352.9037 0001249  83.6350 276.4992 14.59200755622963"
      },
      "geometry": {
        "type": "Point",
        "coordinates": [
          -168.01571334243675,
          65.55725097771895
        ]
      }
    },
    {
      "type": "Feature",
      "properties": {
        "norad_id": 39731,
        "name": "KAZEOSAT 1",
        "group": "resource",
        "lat": -9.465986878669925,
        "lon": 61.588245218990124,
        "alt_km": 755.9702303905642,
        "timestamp": "2025-12-14T07:33:19.134954+00:00",
        "meta_object_name": "KAZEOSAT 1",
        "meta_object_id": "2014-024A",
        "meta_epoch": "2025-12-13T16:36:44.416800",
        "meta_mean_motion": 14.42064152,
        "meta_eccentricity": 0.00011132,
        "meta_inclination": 98.3429,
        "meta_ra_of_asc_node": 59.5777,
        "meta_arg_of_pericenter": 95.7186,
        "meta_mean_anomaly": 264.4131,
        "meta_ephemeris_type": 0,
        "meta_classification_type": "U",
        "meta_norad_cat_id": 39731,
        "meta_element_set_no": 999,
        "meta_rev_at_epoch": 61182,
        "meta_bstar": 0.00015786587,
        "meta_mean_motion_dot": 4.76e-06,
        "meta_mean_motion_ddot": 0,
        "tle_line1": "1 39731U 14024A   25347.69218075  .00000476  00000+0  15787-3 0  9990",
        "tle_line2": "2 39731  98.3429  59.5777 0001113  95.7186 264.4131 14.42064152611820"
      },
      "geometry": {
        "type": "Point",
        "coordinates": [
          61.588245218990124,
          -9.465986878669925
        ]
      }
    }
  ]
}